H1 CPF 01  gfz 2022 05 07 12  6272 tandemx   
H2 1003001  6202 36605    2022 05 07 12 59 42 2022 05 12 00 00 42   120 1 1  0 0 0
H9
10 0 59709  85662.000000  0     190306.929   5596400.414  -4021256.495
10 0 59709  85782.000000  0     359722.639   5016789.281  -4715501.731
10 0 59709  85902.000000  0     511956.263   4347164.544  -5327203.978
10 0 59709  86022.000000  0     642901.446   3599582.096  -5845752.859
10 0 59709  86142.000000  0     749048.702   2787486.349  -6262178.652
10 0 59709  86262.000000  0     827565.950   1925462.748  -6569295.867
10 0 59709  86382.000000  0     876362.977   1028975.006  -6761815.482
10 0 59710    102.000000  0     894138.216    114090.333  -6836426.971
10 0 59710    222.000000  0     880408.000   -802803.649  -6791849.073
10 0 59710    342.000000  0     835517.059  -1705285.912  -6628847.851
10 0 59710    462.000000  0     760631.074  -2577187.163  -6350224.102
10 0 59710    582.000000  0     657711.432  -3402872.733  -5960772.989
10 0 59710    702.000000  0     529470.958  -4167521.285  -5467210.617
10 0 59710    822.000000  0     379313.117  -4857390.518  -4878068.043
10 0 59710    942.000000  0     211254.695  -5460067.968  -4203555.893
10 0 59710   1062.000000  0      29832.730  -5964702.668  -3455398.057
10 0 59710   1182.000000  0    -160002.104  -6362211.022  -2646635.859
10 0 59710   1302.000000  0    -353003.666  -6645453.051  -1791406.488
10 0 59710   1422.000000  0    -543757.561  -6809374.404   -904696.671
10 0 59710   1542.000000  0    -726814.287  -6851107.870     -2076.763
10 0 59710   1662.000000  0    -896825.042  -6770031.956    900578.364
10 0 59710   1782.000000  0   -1048677.033  -6567785.551   1787376.119
10 0 59710   1902.000000  0   -1177624.564  -6248236.781   2642695.506
10 0 59710   2022.000000  0   -1279412.134  -5817406.339   3451471.489
10 0 59710   2142.000000  0   -1350385.721  -5283347.039   4199467.893
10 0 59710   2262.000000  0   -1387590.544  -4655983.507   4873530.902
10 0 59710   2382.000000  0   -1388852.992  -3946919.199   5461821.074
10 0 59710   2502.000000  0   -1352845.027  -3169212.121   5954021.053
10 0 59710   2622.000000  0   -1279128.601  -2337124.180   6341511.739
10 0 59710   2742.000000  0   -1168179.455  -1465854.064   6617515.907
10 0 59710   2862.000000  0   -1021391.629   -571256.950   6777211.364
10 0 59710   2982.000000  0    -841062.563    330445.986   6817810.087
10 0 59710   3102.000000  0    -630357.615   1222961.276   6738603.951
10 0 59710   3222.000000  0    -393254.131   2090217.357   6540976.636
10 0 59710   3342.000000  0    -134466.584   2916653.772   6228380.734
10 0 59710   3462.000000  0     140645.691   3687500.733   5806281.109
10 0 59710   3582.000000  0     426186.409   4389045.991   5282064.650
10 0 59710   3702.000000  0     715845.172   5008883.476   4664917.096
10 0 59710   3822.000000  0    1003032.896   5536140.515   3965666.976
10 0 59710   3942.000000  0    1281024.728   5961675.473   3196599.404
10 0 59710   4062.000000  0    1543112.952   6278249.074   2371244.940
10 0 59710   4182.000000  0    1782761.809   6480657.295   1504135.401
10 0 59710   4302.000000  0    1993760.329   6565822.948    610542.795
10 0 59710   4422.000000  0    2170371.203   6532844.168   -293797.622
10 0 59710   4542.000000  0    2307470.231   6382999.549  -1192972.247
10 0 59710   4662.000000  0    2400673.929   6119710.173  -2071176.970
10 0 59710   4782.000000  0    2446452.160   5748459.386  -2913001.947
10 0 59710   4902.000000  0    2442222.691   5276672.049  -3703707.615
10 0 59710   5022.000000  0    2386425.193   4713555.671  -4429485.150
10 0 59710   5142.000000  0    2278572.723   4069909.605  -5077695.141
10 0 59710   5262.000000  0    2119280.735   3357908.172  -5637081.143
10 0 59710   5382.000000  0    1910273.617   2590863.213  -6097956.371
10 0 59710   5502.000000  0    1654368.225   1782970.064  -6452360.591
10 0 59710   5622.000000  0    1355436.202    949044.023  -6694185.343
10 0 59710   5742.000000  0    1018345.769    104251.276  -6819269.517
10 0 59710   5862.000000  0     648882.219   -736162.445  -6825463.401
10 0 59710   5982.000000  0     253649.818  -1557140.980  -6712660.082
10 0 59710   6102.000000  0    -160042.802  -2344079.287  -6482796.276
10 0 59710   6222.000000  0    -584313.773  -3083077.042  -6139824.768
10 0 59710   6342.000000  0   -1010854.112  -3761181.735  -5689653.546
10 0 59710   6462.000000  0   -1431085.341  -4366614.634  -5140054.134
10 0 59710   6582.000000  0   -1836327.756  -4888979.103  -4500539.769
10 0 59710   6702.000000  0   -2217976.560  -5319446.434  -3782211.754
10 0 59710   6822.000000  0   -2567682.009  -5650914.160  -2997575.809
10 0 59710   6942.000000  0   -2877529.464  -5878133.636  -2160331.130
10 0 59710   7062.000000  0   -3140215.836  -5997804.206  -1285134.677
10 0 59710   7182.000000  0   -3349218.076  -6008630.409   -387343.275
10 0 59710   7302.000000  0   -3498948.255  -5911338.684    517261.286
10 0 59710   7422.000000  0   -3584891.241  -5708653.315   1412757.207
10 0 59710   7542.000000  0   -3603721.623  -5405231.745   2283372.252
10 0 59710   7662.000000  0   -3553396.138  -5007560.106   3113770.550
10 0 59710   7782.000000  0   -3433219.634  -4523813.062   3889330.017
10 0 59710   7902.000000  0   -3243883.047  -3963681.267   4596405.332
10 0 59710   8022.000000  0   -2987472.619  -3338170.213   5222570.423
10 0 59710   8142.000000  0   -2667450.482  -2659376.811   5756835.818
10 0 59710   8262.000000  0   -2288606.938  -1940249.660   6189837.837
10 0 59710   8382.000000  0   -1856986.570  -1194338.216   6513998.582
10 0 59710   8502.000000  0   -1379788.045   -435533.226   6723654.026
10 0 59710   8622.000000  0    -865241.327    322193.936   6815144.551
10 0 59710   8742.000000  0    -322466.066   1065046.916   6786874.640
10 0 59710   8862.000000  0     238689.966   1779655.292   6639339.668
10 0 59710   8982.000000  0     807829.429   2453315.304   6375117.729
10 0 59710   9102.000000  0    1374197.527   3074215.512   5998826.671
10 0 59710   9222.000000  0    1926884.263   3631645.296   5517048.659
10 0 59710   9342.000000  0    2455034.438   4116183.737   4938221.422
10 0 59710   9462.000000  0    2948062.769   4519864.499   4272495.873
10 0 59710   9582.000000  0    3395867.296   4836311.742   3531561.802
10 0 59710   9702.000000  0    3789038.367   5060847.565   2728447.509
10 0 59710   9822.000000  0    4119061.544   5190567.974   1877288.564
10 0 59710   9942.000000  0    4378500.998   5224378.502    993073.857
10 0 59710  10062.000000  0    4561165.929   5162998.141     91376.824
10 0 59710  10182.000000  0    4662252.218   5008923.695   -811929.474
10 0 59710  10302.000000  0    4678456.205   4766356.394  -1700959.612
10 0 59710  10422.000000  0    4608058.919   4441096.244  -2560102.439
10 0 59710  10542.000000  0    4450977.982   4040405.440  -3374301.309
10 0 59710  10662.000000  0    4208785.489   3572844.232  -4129321.578
10 0 59710  10782.000000  0    3884692.364   3048083.965  -4811998.341
10 0 59710  10902.000000  0    3483501.719   2476702.832  -5410461.569
10 0 59710  11022.000000  0    3011531.418   1869969.319  -5914335.305
10 0 59710  11142.000000  0    2476508.144   1239617.802  -6314907.267
10 0 59710  11262.000000  0    1887435.979    597621.882  -6605267.372
10 0 59710  11382.000000  0    1254443.720    -44029.808  -6780415.059
10 0 59710  11502.000000  0     588611.980   -673553.048  -6837338.058
10 0 59710  11622.000000  0     -98218.935  -1279579.971  -6775057.423
10 0 59710  11742.000000  0    -793653.925  -1851358.162  -6594641.372
10 0 59710  11862.000000  0   -1484960.998  -2378936.588  -6299190.272
10 0 59710  11982.000000  0   -2159299.134  -2853336.560  -5893789.055
10 0 59710  12102.000000  0   -2803951.478  -3266703.454  -5385428.821
10 0 59710  12222.000000  0   -3406562.858  -3612439.089  -4782898.886
10 0 59710  12342.000000  0   -3955377.811  -3885311.697  -4096645.984
10 0 59710  12462.000000  0   -4439472.476  -4081539.870  -3338603.158
10 0 59710  12582.000000  0   -4848976.986  -4198849.619  -2521990.364
10 0 59710  12702.000000  0   -5175282.715  -4236502.191  -1661088.062
10 0 59710  12822.000000  0   -5411228.894  -4195291.123   -770988.112
10 0 59710  12942.000000  0   -5551263.836  -4077508.539    132673.639
10 0 59710  13062.000000  0   -5591576.487  -3886881.096   1033998.211
10 0 59710  13182.000000  0   -5530193.323  -3628476.222   1917112.796
10 0 59710  13302.000000  0   -5367037.257  -3308579.809   2766459.981
10 0 59710  13422.000000  0   -5103948.064  -2934550.172   3567079.789
10 0 59710  13542.000000  0   -4744664.152  -2514652.111   4304879.978
10 0 59710  13662.000000  0   -4294765.148  -2057874.067   4966888.162
10 0 59710  13782.000000  0   -3761578.466  -1573734.897   5541479.012
10 0 59710  13902.000000  0   -3154053.919  -1072085.322   6018575.933
10 0 59710  14022.000000  0   -2482606.874   -562906.378   6389825.062
10 0 59710  14142.000000  0   -1758932.509    -56109.273   6648735.952
10 0 59710  14262.000000  0    -995797.369    438656.742   6790787.406
10 0 59710  14382.000000  0    -206812.903    912186.352   6813501.377
10 0 59710  14502.000000  0     593807.167   1355888.736   6716483.458
10 0 59710  14622.000000  0    1391502.252   1761943.461   6501429.469
10 0 59710  14742.000000  0    2171629.068   2123438.551   6172096.949
10 0 59710  14862.000000  0    2919729.829   2434488.415   5734243.855
10 0 59710  14982.000000  0    3621802.264   2690331.246   5195534.347
10 0 59710  15102.000000  0    4264565.312   2887403.571   4565409.931
10 0 59710  15222.000000  0    4835714.317   3023390.714   3854929.569
10 0 59710  15342.000000  0    5324165.491   3097252.373   3076580.539
10 0 59710  15462.000000  0    5720279.483   3109219.966   2244056.931
10 0 59710  15582.000000  0    6016057.522   3060768.580   1372017.336
10 0 59710  15702.000000  0    6205309.385   2954563.385    475821.211
99
